ONEWEB-0385             
1 49311U 21090AJ  23279.07277605  .00000000  00000+0 -32067-4 0  9999
2 49311  87.9156 110.5718 0001676 100.8258 259.3064 13.20773420101081
ONEWEB-0386             
1 49312U 21090AK  23279.08962110  .00000052  00000+0  94876-4 0  9995
2 49312  87.9148 110.5800 0001791  96.2568 263.8770 13.20771420101098
ONEWEB-0387             
1 49313U 21090AL  23278.92337164  .00000011  00000+0 -48541-5 0  9998
2 49313  87.9156 110.6592 0001294  96.3520 263.7761 13.20775346 99764
ONEWEB-0388             
1 49314U 21090AM  23278.63790512 -.00000012  00000+0 -61630-4 0  9992
2 49314  87.9222 141.1322 0001809  80.4121 279.7216 13.19726393 96420
ONEWEB-0389             
1 50469U 21132A   23278.85028672  .00000101  00000+0  22703-3 0  9991
2 50469  87.9260 201.6630 0001427  83.3058 276.8236 13.17648131 88327
ONEWEB-0390             
1 50470U 21132B   23278.85238840 -.00000349  00000+0 -93078-3 0  9992
2 50470  87.9262 201.6694 0001401  64.6642 295.4634 13.17649149 88323
ONEWEB-0391             
1 50471U 21132C   23278.85450997  .00000081  00000+0  17628-3 0  9990
2 50471  87.9262 201.6396 0001657  79.6089 280.5229 13.17649987 89615
ONEWEB-0392             
1 50472U 21132D   23278.80811248 -.00001929  00000+0 -50040-2 0  9994
2 50472  87.9252 201.6857 0001527  71.5185 288.6112 13.17645090 88352
